NORAD_CAT_ID,OBJECT_NAME,OBJECT_TYPE,EPOCH,MEAN_MOTION,ECCENTRICITY,INCLINATION,RA_OF_ASC_NODE,ARG_OF_PERICENTER,MEAN_ANOMALY,BSTAR,MEAN_MOTION_DOT,MEAN_MOTION_DDOT,TLE_LINE0,TLE_LINE1,TLE_LINE2,SEMIMAJOR_AXIS,PERIOD,APOGEE,PERIGEE,DECAYED
54808.0,STARLINK-5413,PAYLOAD,2023-01-21 00:35:52,15.73208319,0.0001167,53.2172,136.7975,113.7081,246.4062,1.8793e-05,2.019e-05,0.0,0 STARLINK-5413,1 54808U 22175BC  23021.02491350  .00002019  00000-0  18793-4 0  9998,2 54808  53.2172 136.7975 0001167 113.7081 246.4062 15.73208319  5122,6727.871,91.533,350.522,348.951,0.0
54808.0,STARLINK-5413,PAYLOAD,2023-01-21 11:16:14,15.73195559,8.96e-05,53.2169,134.5981,110.4338,249.6779,1.7290999999999998e-05,1.808e-05,0.0,0 STARLINK-5413,1 54808U 22175BC  23021.46961733  .00001808  00000-0  17291-4 0  9990,2 54808  53.2169 134.5981 0000896 110.4338 249.6779 15.73195559  5196,6727.908,91.533,350.376,349.17,0.0
54808.0,STARLINK-5413,PAYLOAD,2023-01-21 14:19:12,15.732033,0.000102,53.216,133.9692,104.3113,255.8021,2.4368e-05,2.802e-05,0.0,0 STARLINK-5413,1 54808U 22175BC  23021.59666788  .00002802  00000-0  24368-4 0  9994,2 54808  53.2160 133.9692 0001020 104.3113 255.8021 15.73203300  5218,6727.886,91.533,350.43699999999995,349.065,0.0
54808.0,STARLINK-5413,PAYLOAD,2023-01-22 08:36:58,15.73189943,0.0001066999999999,53.2161,130.1968,98.5671,261.547,7.014e-06,3.65e-06,0.0,0 STARLINK-5413,1 54808U 22175BC  23022.35901246  .00000365  00000-0  70140-5 0  9992,2 54808  53.2161 130.1968 0001067  98.5671 261.5470 15.73189943  5339,6727.924,91.534,350.50699999999995,349.071,0.0
54808.0,STARLINK-5413,PAYLOAD,2023-01-22 13:11:24,15.73202407,0.0001131,53.2162,129.2525,110.939,249.1752,1.8985e-05,2.046e-05,0.0,0 STARLINK-5413,1 54808U 22175BC  23022.54958690  .00002046  00000-0  18985-4 0  9994,2 54808  53.2162 129.2525 0001131 110.9390 249.1752 15.73202407  5366,6727.888000000001,91.533,350.514,348.992,0.0
54808.0,STARLINK-5413,PAYLOAD,2023-01-23 09:00:38,15.73213598,6.979999999999999e-05,53.2167,125.1642,102.3142,257.7956,2.0078e-05,2.201e-05,0.0,0 STARLINK-5413,1 54808U 22175BC  23023.37544036  .00002201  00000-0  20078-4 0  9990,2 54808  53.2167 125.1642 0000698 102.3142 257.7956 15.73213598  5491,6727.856,91.532,350.191,349.25199999999995,0.0
54808.0,STARLINK-5413,PAYLOAD,2023-01-24 10:55:48,15.73201992,0.0001167999999999,53.2171,119.8201,107.0735,253.0413,1.1502e-05,9.95e-06,0.0,0 STARLINK-5413,1 54808U 22175BC  23024.45542352  .00000995  00000-0  11502-4 0  9999,2 54808  53.2171 119.8201 0001168 107.0735 253.0413 15.73201992  5661,6727.889,91.533,350.54,348.969,0.0
54808.0,STARLINK-5413,PAYLOAD,2023-01-25 12:50:57,15.73216823,0.0001226,53.2165,114.4776,92.1053,268.0107,8.7525e-06,6.09e-06,0.0,0 STARLINK-5413,1 54808U 22175BC  23025.53538946  .00000609  00000-0  87525-5 0  9994,2 54808  53.2165 114.4776 0001226  92.1053 268.0107 15.73216823  5838,6727.847,91.532,350.537,348.88699999999994,0.0
54808.0,STARLINK-5413,PAYLOAD,2023-01-26 11:43:10,15.73200841,0.0001256,53.2176,109.7604,74.5307,285.5851,8.5289e-06,5.77e-06,0.0,0 STARLINK-5413,1 54808U 22175BC  23026.48831828  .00000577  00000-0  85289-5 0  9993,2 54808  53.2176 109.7604 0001256  74.5307 285.5851 15.73200841  5985,6727.893,91.533,350.603,348.913,0.0
54808.0,STARLINK-5413,PAYLOAD,2023-01-27 12:06:51,15.73204668,0.0001161999999999,53.2179,104.7314,73.6998,286.415,6.0285e-06,2.27e-06,0.0,0 STARLINK-5413,1 54808U 22175BC  23027.50476355  .00000227  00000-0  60285-5 0  9998,2 54808  53.2179 104.7314 0001162  73.6998 286.4150 15.73204668  6145,6727.882,91.533,350.529,348.965,0.0
54808.0,STARLINK-5413,PAYLOAD,2023-01-28 10:59:03,15.73198722,0.0001193,53.2169,100.0146,95.5762,264.5395,5.6883e-06,1.79e-06,0.0,0 STARLINK-5413,1 54808U 22175BC  23028.45768403  .00000179  00000-0  56883-5 0  9996,2 54808  53.2169 100.0146 0001193  95.5762 264.5395 15.73198722  8459,6727.899,91.533,350.566,348.961,0.0
54808.0,STARLINK-5413,PAYLOAD,2023-01-29 03:45:20,15.73208819,9.7e-05,53.2167,96.5582,87.9682,272.1449,6.2956e-06,2.64e-06,0.0,0 STARLINK-5413,1 54808U 22175BC  23029.15648396  .00000264  00000-0  62956-5 0  9995,2 54808  53.2167  96.5582 0000970  87.9682 272.1449 15.73208819  6405,6727.87,91.533,350.388,349.082,0.0
54808.0,STARLINK-5413,PAYLOAD,2023-01-29 11:22:44,15.73203933,0.000118,53.2167,94.9857,90.8521,269.2635,1.4559e-05,1.424e-05,0.0,0 STARLINK-5413,1 54808U 22175BC  23029.47412462  .00001424  00000-0  14559-4 0  9997,2 54808  53.2167  94.9857 0001180  90.8521 269.2635 15.73203933  8612,6727.884,91.533,350.543,348.955,0.0
54808.0,STARLINK-5413,PAYLOAD,2023-01-30 04:09:00,15.7320709,0.0001084,53.2167,91.5272,101.8848,258.2294,1.0987e-05,9.23e-06,0.0,0 STARLINK-5413,1 54808U 22175BC  23030.17292741  .00000923  00000-0  10987-4 0  9996,2 54808  53.2167  91.5272 0001084 101.8848 258.2294 15.73207090  6563,6727.875,91.533,350.469,349.011,0.0
54808.0,STARLINK-5413,PAYLOAD,2023-01-30 10:14:56,15.73200614,0.0001102,53.2168,90.2695,109.5743,250.5396,3.5609e-06,-1.2e-06,0.0,0 STARLINK-5413,1 54808U 22175BC  23030.42704503 -.00000120  00000-0  35609-5 0  9997,2 54808  53.2168  90.2695 0001102 109.5743 250.5396 15.73200614  6607,6727.893,91.533,350.5,349.017,0.0
54808.0,STARLINK-5413,PAYLOAD,2023-01-30 20:55:18,15.732011,0.0001117,53.2168,88.0704,82.7817,277.3331,-2.5173e-06,-9.73e-06,0.0,0 STARLINK-5413,1 54808U 22175BC  23030.87174410 -.00000973  00000-0 -25173-5 0  9996,2 54808  53.2168  88.0704 0001117  82.7817 277.3331 15.73201100  8837,6727.892,91.533,350.509,349.006,0.0
54808.0,STARLINK-5413,PAYLOAD,2023-01-31 10:38:36,15.73212202,0.0001052,53.2172,85.2405,79.1832,280.9306,1.1283e-05,9.65e-06,0.0,0 STARLINK-5413,1 54808U 22175BC  23031.44348373  .00000965  00000-0  11283-4 0  9996,2 54808  53.2172  85.2405 0001052  79.1832 280.9306 15.73212202  6761,6727.86,91.532,350.433,349.018,0.0
54808.0,STARLINK-5413,PAYLOAD,2023-02-01 03:24:54,15.73197517,0.0001192,53.2167,81.7819,63.337,296.7772,9.0442e-07,-4.93e-06,0.0,0 STARLINK-5413,1 54808U 22175BC  23032.14229823 -.00000493  00000-0  90442-6 0  9995,2 54808  53.2167  81.7819 0001192  63.3370 296.7772 15.73197517  6877,6727.902,91.533,350.569,348.965,0.0
54808.0,STARLINK-5413,PAYLOAD,2023-02-01 09:30:50,15.73183773,0.0001448,53.2164,80.5241,74.2428,285.8752,-1.2197e-05,-2.33e-05,0.0,0 STARLINK-5413,1 54808U 22175BC  23032.39642337 -.00002330  00000-0 -12197-4 0  9993,2 54808  53.2164  80.5241 0001448  74.2428 285.8752 15.73183773  6910,6727.941,91.534,350.781,348.832,0.0
54808.0,STARLINK-5413,PAYLOAD,2023-02-02 02:17:06,15.73207053,0.0001263,53.2165,77.0646,77.7316,282.3846,-2.7565e-06,-1.007e-05,0.0,0 STARLINK-5413,1 54808U 22175BC  23033.09521673 -.00001007  00000-0 -27565-5 0  9996,2 54808  53.2165  77.0646 0001263  77.7316 282.3846 15.73207053  7027,6727.875,91.533,350.59,348.89,0.0
54808.0,STARLINK-5413,PAYLOAD,2023-02-02 12:57:27,15.73218831,0.0002925,53.2171,74.8704,39.132,320.9911,1.0327e-05,8.28e-06,0.0,0 STARLINK-5413,1 54808U 22175BC  23033.53990453  .00000828  00000-0  10327-4 0  9996,2 54808  53.2171  74.8704 0002925  39.1320 320.9911 15.73218831  9252,6727.841,91.532,351.674,347.739,0.0
54808.0,STARLINK-5413,PAYLOAD,2023-02-02 23:37:50,15.73194969,0.0001054,53.2172,72.6644,86.025,274.0891,5.8748e-06,2.05e-06,0.0,0 STARLINK-5413,1 54808U 22175BC  23033.98460781  .00000205  00000-0  58748-5 0  9990,2 54808  53.2172  72.6644 0001054  86.0250 274.0891 15.73194969  7166,6727.91,91.533,350.484,349.065,0.0
54808.0,STARLINK-5413,PAYLOAD,2023-02-03 11:49:40,15.73194007,0.0001505,53.2163,70.1518,65.9376,294.1801,2.2205e-05,2.496e-05,0.0,0 STARLINK-5413,1 54808U 22175BC  23034.49283132  .00002496  00000-0  22205-4 0  9992,2 54808  53.2163  70.1518 0001505  65.9376 294.1801 15.73194007  9401,6727.912,91.534,350.79,348.765,0.0
54808.0,STARLINK-5413,PAYLOAD,2023-02-04 09:10:22,15.73221024,0.0001254,53.2169,65.7492,72.8468,287.269,1.2812e-05,1.18e-05,0.0,0 STARLINK-5413,1 54808U 22175BC  23035.38220985  .00001180  00000-0  12812-4 0  9990,2 54808  53.2169  65.7492 0001254  72.8468 287.2690 15.73221024  7382,6727.835,91.532,350.544,348.857,0.0
54808.0,STARLINK-5413,PAYLOAD,2023-02-04 21:22:14,15.73202923,0.0001167,53.2169,63.233,104.6235,255.4914,9.4569e-06,7.08e-06,0.0,0 STARLINK-5413,1 54808U 22175BC  23035.89044164  .00000708  00000-0  94569-5 0  9994,2 54808  53.2169  63.2330 0001167 104.6235 255.4914 15.73202923  9627,6727.887,91.533,350.537,348.967,0.0
54808.0,STARLINK-5413,PAYLOAD,2023-02-05 01:56:40,15.73204971,0.0001241,53.2169,62.2913,103.2132,256.9027,5.1165e-06,9.8e-07,0.0,0 STARLINK-5413,1 54808U 22175BC  23036.08102582  .00000098  00000-0  51165-5 0  9992,2 54808  53.2169  62.2913 0001241 103.2132 256.9027 15.73204971  7496,6727.881,91.533,350.581,348.911,0.0
54808.0,STARLINK-5413,PAYLOAD,2023-02-05 11:05:32,15.7321459,0.0001324,53.2172,60.4044,111.8268,248.2893,1.3697e-05,1.304e-05,0.0,0 STARLINK-5413,1 54808U 22175BC  23036.46218403  .00001304  00000-0  13697-4 0  9992,2 54808  53.2172  60.4044 0001324 111.8268 248.2893 15.73214590  7552,6727.854,91.532,350.609,348.828,0.0
54808.0,STARLINK-5413,PAYLOAD,2023-02-05 18:42:58,15.73200542,0.000147,53.217,58.8329,69.9683,290.1495,-1.0874e-06,-7.73e-06,0.0,0 STARLINK-5413,1 54808U 22175BC  23036.77983841 -.00000773  00000-0 -10874-5 0  9997,2 54808  53.2170  58.8329 0001470  69.9683 290.1495 15.73200542  7605,6727.894,91.533,350.748,348.77,0.0
54808.0,STARLINK-5413,PAYLOAD,2023-02-06 09:57:45,15.73205182,0.0001226,53.2174,55.6891,78.5736,281.5422,1.0586e-05,8.66e-06,0.0,0 STARLINK-5413,1 54808U 22175BC  23037.41511063  .00000866  00000-0  10586-4 0  9992,2 54808  53.2174  55.6891 0001226  78.5736 281.5422 15.73205182  7702,6727.88,91.533,350.57,348.921,0.0
54808.0,STARLINK-5413,PAYLOAD,2023-02-07 10:21:26,15.73209668,0.0001448,53.2176,50.6578,84.2087,275.9098,2.1795e-06,-3.14e-06,0.0,0 STARLINK-5413,1 54808U 22175BC  23038.43155571 -.00000314  00000-0  21795-5 0  9997,2 54808  53.2176  50.6578 0001448  84.2087 275.9098 15.73209668  7866,6727.868,91.533,350.707,348.758,0.0
